[{"OBJECT_NAME":"YAOGAN-43 01F","OBJECT_ID":"2024-148F","EPOCH":"2026-03-10T00:23:08.877408","MEAN_MOTION":15.29824616,"ECCENTRICITY":0.00057048,"INCLINATION":34.9925,"RA_OF_ASC_NODE":59.8891,"ARG_OF_PERICENTER":18.4862,"MEAN_ANOMALY":341.6062,"EPHEMERIS_TYPE":0,"CLASSIFICATION_TYPE":"U","NORAD_CAT_ID":60463,"ELEMENT_SET_NO":999,"REV_AT_EPOCH":8707,"BSTAR":0.00058388219,"MEAN_MOTION_DOT":0.00017308,"MEAN_MOTION_DDOT":0},{"OBJECT_NAME":"STARLINK-33839","OBJECT_ID":"2025-110T","EPOCH":"2026-03-09T03:52:11.678592","MEAN_MOTION":15.30198575,"ECCENTRICITY":0.00010831,"INCLINATION":53.1613,"RA_OF_ASC_NODE":29.0665,"ARG_OF_PERICENTER":85.5068,"MEAN_ANOMALY":274.6057,"EPHEMERIS_TYPE":0,"CLASSIFICATION_TYPE":"U","NORAD_CAT_ID":64113,"ELEMENT_SET_NO":999,"REV_AT_EPOCH":4580,"BSTAR":0.0010355119,"MEAN_MOTION_DOT":0.00030434,"MEAN_MOTION_DDOT":0}]
